OBJECT_NAME,OBJECT_ID,EPOCH,MEAN_MOTION,ECCENTRICITY,INCLINATION,RA_OF_ASC_NODE,ARG_OF_PERICENTER,MEAN_ANOMALY,EPHEMERIS_TYPE,CLASSIFICATION_TYPE,NORAD_CAT_ID,ELEMENT_SET_NO,REV_AT_EPOCH,BSTAR,MEAN_MOTION_DOT,MEAN_MOTION_DDOT
STARLINK-36626,2026-018Q,2026-06-19T17:17:55.096512,15.33442323,.0000179,97.2851,235.5305,79.2363,280.8900,0,U,67603,999,2297,.35453188E-3,.11387E-3,0
STARLINK-36605,2026-018R,2026-06-20T04:39:10.838880,15.33460852,.00015097,97.2844,235.9553,107.6870,252.4538,0,U,67604,999,2304,.54077964E-3,.17433E-3,0
STARLINK-36281,2026-018S,2026-06-19T18:08:48.940800,15.33453027,.00002921,97.2836,235.4829,175.3271,184.7975,0,U,67605,999,2297,.44003181E-3,.14161E-3,0
STARLINK-35843,2026-018T,2026-06-20T04:31:20.982720,15.33466359,.00014644,97.2838,235.9638,87.0740,273.0670,0,U,67606,999,2304,.6053035E-3,.1953E-3,0
STARLINK-36351,2026-018U,2026-06-19T17:14:01.061376,15.33431507,.00019935,97.2823,235.5337,122.1799,237.9637,0,U,67607,999,2297,.35726883E-3,.11472E-3,0
STARLINK-36411,2026-018V,2026-06-19T21:20:40.106112,15.33448426,.00008548,97.2835,235.6107,99.6989,260.4351,0,U,67608,999,2299,.2949855E-3,.9461E-4,0
STARLINK-36312,2026-018W,2026-06-19T17:10:05.052000,15.33446936,.00006507,97.2840,235.5382,185.6696,174.4540,0,U,67609,999,2297,.1821588E-3,.5811E-4,0
STARLINK-36387,2026-018X,2026-06-19T16:49:23.250720,15.75233874,.00015052,97.2835,241.6654,57.7666,302.3745,0,U,67610,999,2337,.150501E-2,.230968E-2,0
STARLINK-36636,2026-018Y,2026-06-19T16:46:35.337504,15.33455314,.00013986,97.2816,235.4050,245.0415,115.0682,0,U,67611,999,2296,.49058464E-3,.15801E-3,0
STARLINK-36407,2026-018Z,2026-06-19T17:02:15.703872,15.33448219,.00017195,97.2837,235.5432,54.6200,305.5203,0,U,67612,999,2302,.46465352E-3,.14957E-3,0
STARLINK-36597,2026-018AA,2026-06-19T18:00:58.942080,15.33453370,.00011115,97.2840,235.4909,247.9297,112.1828,0,U,67613,999,2297,.44291258E-3,.14255E-3,0
NEONSAT-1A,2026-019A,2026-06-20T06:54:23.175936,15.08440907,.00133064,97.4271,291.3546,176.0427,184.0910,0,U,67614,999,2128,.18623281E-3,.2843E-4,0
STARLINK-36548,2026-020A,2026-06-19T14:02:07.196064,15.27612603,.00027072,43.0025,284.6477,280.0437,80.0109,0,U,67617,999,2169,.46744988E-3,.12636E-3,0
STARLINK-36601,2026-020B,2026-06-20T06:57:29.021472,15.27588584,.00018711,43.0045,280.4618,280.7867,79.2774,0,U,67618,999,2180,.46779781E-3,.12636E-3,0
STARLINK-36119,2026-020C,2026-06-20T07:08:35.240640,15.27591319,.00022673,43.0020,280.5277,257.7578,102.3019,0,U,67619,999,2180,.52142449E-3,.14119E-3,0
STARLINK-36607,2026-020D,2026-06-20T07:41:40.713504,15.27586769,.00022212,42.9965,279.8201,289.7692,70.2920,0,U,67620,999,2181,.47218261E-3,.12757E-3,0
STARLINK-36615,2026-020E,2026-06-19T18:48:19.177920,15.27556791,.00012536,42.9991,283.5385,284.9411,75.1302,0,U,67621,999,2172,.53660019E-3,.14523E-3,0
STARLINK-36614,2026-020F,2026-06-20T06:53:47.202432,15.27591278,.00016701,43.0018,280.4498,280.3097,79.7567,0,U,67622,999,2180,.59465629E-3,.16143E-3,0
STARLINK-36600,2026-020G,2026-06-20T07:03:02.345760,15.27589124,.00020985,43.0057,280.5086,282.9664,77.0954,0,U,67623,999,2180,.55412168E-3,.15021E-3,0
STARLINK-36439,2026-020H,2026-06-20T06:38:58.691616,15.27601860,.0000807,43.0003,280.3733,263.9926,96.0833,0,U,67624,999,2180,.54735227E-3,.1484E-3,0
STARLINK-36438,2026-020J,2026-06-20T06:50:04.916832,15.27590695,.00013072,43.0013,280.4318,269.5091,90.5611,0,U,67625,999,2180,.5127015E-3,.13877E-3,0
STARLINK-36436,2026-020K,2026-06-19T14:37:03.493344,15.27591943,.00010262,43.0011,283.9497,273.6881,86.3853,0,U,67626,999,2170,.3804331E-3,.10225E-3,0
STARLINK-36502,2026-020L,2026-06-20T06:33:25.711200,15.27578544,.00018534,43.0013,280.3466,276.6146,83.4495,0,U,67627,999,2180,.58318254E-3,.1582E-3,0
STARLINK-36532,2026-020M,2026-06-19T14:44:27.580704,15.27594507,.00008137,43.0004,283.9842,280.9376,79.1384,0,U,67628,999,2170,.60012961E-3,.16296E-3,0
STARLINK-36367,2026-020N,2026-06-19T14:35:12.710400,15.27587393,.00006677,43.0023,283.9419,254.4963,105.5815,0,U,67629,999,2170,.37133703E-3,.9972E-4,0
STARLINK-36416,2026-020P,2026-06-20T06:44:31.593408,15.27593783,.00018569,42.9979,280.3963,273.1950,86.8690,0,U,67630,999,2180,.43913066E-3,.11846E-3,0
STARLINK-36527,2026-020Q,2026-06-19T18:57:32.080896,15.27593980,.00017249,43.0014,283.5963,273.7577,86.3077,0,U,67631,999,2172,.71499762E-3,.19474E-3,0
STARLINK-36633,2026-020R,2026-06-20T07:10:26.118624,15.27591091,.00021841,43.0040,280.5320,266.9092,93.1510,0,U,67632,999,2180,.51935793E-3,.14062E-3,0
STARLINK-36637,2026-020S,2026-06-20T06:42:40.768992,15.27588010,.00012817,43.0029,280.3866,271.6434,88.4271,0,U,67633,999,2180,.45059245E-3,.12161E-3,0
STARLINK-36617,2026-020T,2026-06-19T14:18:46.194336,15.27591821,.00011921,43.0018,284.7233,270.7136,89.3579,0,U,67634,999,2169,.56894636E-3,.15432E-3,0
