STARLINK-36626          
1 67603U 26018Q   26170.72077658  .00011387  00000+0  35453-3 0  9999
2 67603  97.2851 235.5305 0000179  79.2363 280.8900 15.33442323 22973
STARLINK-36605          
1 67604U 26018R   26171.19387545  .00017433  00000+0  54078-3 0  9993
2 67604  97.2844 235.9553 0001509 107.6870 252.4538 15.33460852 23040
STARLINK-36281          
1 67605U 26018S   26170.75612200  .00014161  00000+0  44003-3 0  9996
2 67605  97.2836 235.4829 0000292 175.3271 184.7975 15.33453027 22977
STARLINK-35843          
1 67606U 26018T   26171.18843730  .00019530  00000+0  60530-3 0  9997
2 67606  97.2838 235.9638 0001464  87.0740 273.0670 15.33466359 23040
STARLINK-36351          
1 67607U 26018U   26170.71806784  .00011472  00000+0  35727-3 0  9991
2 67607  97.2823 235.5337 0001993 122.1799 237.9637 15.33431507 22979
STARLINK-36411          
1 67608U 26018V   26170.88935308  .00009461  00000+0  29499-3 0  9999
2 67608  97.2835 235.6107 0000854  99.6989 260.4351 15.33448426 22997
STARLINK-36312          
1 67609U 26018W   26170.71533625  .00005811  00000+0  18216-3 0  9998
2 67609  97.2840 235.5382 0000650 185.6696 174.4540 15.33446936 22979
STARLINK-36387          
1 67610U 26018X   26170.70096355  .00230968  00000+0  15050-2 0  9998
2 67610  97.2835 241.6654 0001505  57.7666 302.3745 15.75233874 23376
STARLINK-36636          
1 67611U 26018Y   26170.69902011  .00015801  00000+0  49058-3 0  9995
2 67611  97.2816 235.4050 0001398 245.0415 115.0682 15.33455314 22963
STARLINK-36407          
1 67612U 26018Z   26170.70990398  .00014957  00000+0  46465-3 0  9993
2 67612  97.2837 235.5432 0001719  54.6200 305.5203 15.33448219 23024
STARLINK-36597          
1 67613U 26018AA  26170.75068220  .00014255  00000+0  44291-3 0  9995
2 67613  97.2840 235.4909 0001111 247.9297 112.1828 15.33453370 22978
NEONSAT-1A              
1 67614U 26019A   26171.28776824  .00002843  00000+0  18623-3 0  9992
2 67614  97.4271 291.3546 0013306 176.0427 184.0910 15.08440907 21280
STARLINK-36548          
1 67617U 26020A   26170.58480551  .00012636  00000+0  46745-3 0  9995
2 67617  43.0025 284.6477 0002707 280.0437  80.0109 15.27612603 21690
STARLINK-36601          
1 67618U 26020B   26171.28991923  .00012636  00000+0  46780-3 0  9993
2 67618  43.0045 280.4618 0001871 280.7867  79.2774 15.27588584 21800
STARLINK-36119          
1 67619U 26020C   26171.29763010  .00014119  00000+0  52142-3 0  9996
2 67619  43.0020 280.5277 0002267 257.7578 102.3019 15.27591319 21809
STARLINK-36607          
1 67620U 26020D   26171.32061011  .00012757  00000+0  47218-3 0  9998
2 67620  42.9965 279.8201 0002221 289.7692  70.2920 15.27586769 21815
STARLINK-36615          
1 67621U 26020E   26170.78355530  .00014523  00000+0  53660-3 0  9991
2 67621  42.9991 283.5385 0001253 284.9411  75.1302 15.27556791 21720
STARLINK-36614          
1 67622U 26020F   26171.28735188  .00016143  00000+0  59466-3 0  9999
2 67622  43.0018 280.4498 0001670 280.3097  79.7567 15.27591278 21808
STARLINK-36600          
1 67623U 26020G   26171.29377715  .00015021  00000+0  55412-3 0  9990
2 67623  43.0057 280.5086 0002098 282.9664  77.0954 15.27589124 21807
STARLINK-36439          
1 67624U 26020H   26171.27706819  .00014840  00000+0  54735-3 0  9995
2 67624  43.0003 280.3733 0000807 263.9926  96.0833 15.27601860 21801
STARLINK-36438          
1 67625U 26020J   26171.28477913  .00013877  00000+0  51270-3 0  9997
2 67625  43.0013 280.4318 0001307 269.5091  90.5611 15.27590695 21800
STARLINK-36436          
1 67626U 26020K   26170.60906821  .00010225  00000+0  38043-3 0  9995
2 67626  43.0011 283.9497 0001026 273.6881  86.3853 15.27591943 21703
STARLINK-36502          
1 67627U 26020L   26171.27321425  .00015820  00000+0  58318-3 0  9994
2 67627  43.0013 280.3466 0001853 276.6146  83.4495 15.27578544 21801
STARLINK-36532          
1 67628U 26020M   26170.61420811  .00016296  00000+0  60013-3 0  9994
2 67628  43.0004 283.9842 0000813 280.9376  79.1384 15.27594507 21702
STARLINK-36367          
1 67629U 26020N   26170.60778600  .00009972  00000+0  37134-3 0  9997
2 67629  43.0023 283.9419 0000667 254.4963 105.5815 15.27587393 21707
STARLINK-36416          
1 67630U 26020P   26171.28092122  .00011846  00000+0  43913-3 0  9997
2 67630  42.9979 280.3963 0001856 273.1950  86.8690 15.27593783 21800
STARLINK-36527          
1 67631U 26020Q   26170.78995464  .00019474  00000+0  71500-3 0  9991
2 67631  43.0014 283.5963 0001724 273.7577  86.3077 15.27593980 21727
STARLINK-36633          
1 67632U 26020R   26171.29891341  .00014062  00000+0  51936-3 0  9997
2 67632  43.0040 280.5320 0002184 266.9092  93.1510 15.27591091 21806
STARLINK-36637          
1 67633U 26020S   26171.27963853  .00012161  00000+0  45059-3 0  9991
2 67633  43.0029 280.3866 0001281 271.6434  88.4271 15.27588010 21805
STARLINK-36617          
1 67634U 26020T   26170.59636799  .00015432  00000+0  56895-3 0  9996
2 67634  43.0018 284.7233 0001192 270.7136  89.3579 15.27591821 21692
